STARLINK-1159
1 45057U 20006P   26092.91668981  .00354799  58258-4  11113-2 0  9994
2 45057  53.0387 112.1034 0003599  48.8730  96.3918 15.90961256  6003
